{"type": "FeatureCollection", "features": [{"type": "Feature", "properties": {"segment": "departure", "origin": "BCN"}, "geometry": {"type": "LineString", "coordinates": [[2.07846, 41.2971], [2.0771722758771523, 41.30377519551722], [2.075884551754304, 41.310450391034436], [2.0745968276314555, 41.31712558655165], [2.0733091035086075, 41.323800782068865], [2.072736755597592, 41.3267675469672], [2.0721643555632996, 41.32973430903003], [2.0715919033955887, 41.33270106825684], [2.071019399084317, 41.33566782464706], [2.0704468426193396, 41.33863457820012], [2.0698742339905083, 41.34160132891549], [2.0681564176498384, 41.35050159912863], [2.064719551551199, 41.36830208204842], [2.059561694733453, 41.39500272007608], [2.0526801946375466, 41.43060345547213], [2.0440716814404887, 41.4751042303078], [2.0337320607566243, 41.52850498641589], [2.0216565046794086, 41.590805665341165], [2.0078394411306006, 41.66200620829009], [2.0078394411306, 41.66200620829009], [1.9496348140376722, 41.959018324581734], [1.8908851038886363, 42.25600076802235], [1.831579472320709, 42.55295294554653], [1.7717068180266087, 42.84987424958982], [1.7112557684988752, 43.146764057629476], [1.6502146714667716, 43.443621731707886], [1.5885715860123664, 43.740446617937934], [1.5263142733517299, 44.037238045989504], [1.4634301872664612, 44.333995328556306], [1.3999064641700407, 44.63071776080207], [1.335729912792694, 44.92740461978532], [1.2708870034676423, 45.22405516386151], [1.205363857000725, 45.520668632061714], [1.1391462331044657, 45.81724424344674], [1.0722195183766516, 46.11378119643536], [1.0045687138024824, 46.410278668105725], [0.9361784217582234, 46.70673581346843], [0.867032832493151, 47.0031517647101], [0.7971157100653339, 47.29952563040599], [0.7264103777054932, 47.595856494700094], [0.6548997025818053, 47.892143416451276], [0.5825660799370239, 48.18838542834373], [0.5093914165677708, 48.48458153595998], [0.4353571136141634, 48.78073071681475], [0.36044404862621493, 49.07683191934746], [0.2846325568715693, 49.37288406187164], [0.2079024118471615, 49.668886031478806], [0.1302328049552916, 49.96483668289471], [0.05160232430236649, 50.260734837285376], [-0.028011067423810543, 50.556579281010464], [-0.10863005604484699, 50.852368764321206], [-0.19027800000000003, 51.148102]]}}, {"type": "Feature", "properties": {"segment": "mid_gc"}, "geometry": {"type": "LineString", "coordinates": [[-0.19027800000000006, 51.148102], [-0.19136162832289277, 51.15274400055127], [-0.19244547468547551, 51.157385991088695], [-0.19352953916732557, 51.16202797160858], [-0.1946138218480575, 51.16666994210727], [-0.19569832280732305, 51.17131190258106], [-0.19678304212481154, 51.17595385302629], [-0.19786797988024937, 51.180595793439274], [-0.19895313615340032, 51.185237723816314], [-0.2000385110240656, 51.189879644153734], [-0.20112410457208377, 51.19452155444783], [-0.20220991687733086, 51.19916345469493], [-0.20329594801972029, 51.20380534489135], [-0.20438219807920285, 51.20844722503337], [-0.20546866713576703, 51.213089095117304], [-0.2065553552694386, 51.21773095513946], [-0.20764226256028095, 51.22237280509614], [-0.208729389088395, 51.22701464498364], [-0.20981673493391928, 51.23165647479825], [-0.21090430017702985, 51.23629829453628], [-0.21199208489794036, 51.24094010419401], [-0.21308008917690216, 51.24558190376775], [-0.21416831309420423, 51.250223693253766], [-0.2152567567301733, 51.25486547264837], [-0.21634542016517358, 51.25950724194784], [-0.21743430347960724, 51.26414900114846], [-0.2185234067539141, 51.2687907502465], [-0.21961273006857177, 51.27343248923828], [-0.22070227350409552, 51.27807421812005], [-0.2217920371410386, 51.28271593688808], [-0.2228820210599921, 51.28735764553867], [-0.2239722253415848, 51.29199934406808], [-0.22506265006648343, 51.2966410324726], [-0.2261532953153927, 51.30128271074848], [-0.22724416116905524, 51.305924378892], [-0.22833524770825145, 51.31056603689943], [-0.2294265550137999, 51.31520768476703], [-0.23051808316655698, 51.31984932249106], [-0.2316098322474173, 51.3244909500678], [-0.23270180233731336, 51.329132567493495], [-0.23379399351721555, 51.3337741747644], [-0.23488640586813275, 51.33841577187679], [-0.2359790394711117, 51.34305735882691], [-0.23707189440723725, 51.347698935611014], [-0.23816497075763227, 51.352340502225346], [-0.23925826860345814, 51.356982058666176], [-0.24035178802591425, 51.361623604929726], [-0.24144552910623818, 51.366265141012256], [-0.24253949192570573, 51.370906666910024], [-0.24363367656563104, 51.375548182619255], [-0.24472808310736652, 51.380189688136184], [-0.24582271163230277, 51.38483118345706], [-0.24691756222186886, 51.38947266857813], [-0.24801263495753223, 51.39411414349563], [-0.2491079299207985, 51.39875560820576], [-0.25020344719321186, 51.40339706270479], [-0.25129918685635483, 51.40803850698893], [-0.25239514899184845, 51.41267994105442], [-0.2534913336813522, 51.41732136489748], [-0.254587741006564, 51.42196277851434], [-0.2556843710492202, 51.42660418190122], [-0.25678122389109587, 51.431245575054334], [-0.2578782996140046, 51.43588695796991], [-0.2589755982997984, 51.44052833064417], [-0.260073120030368, 51.44516969307332], [-0.26117086488764285, 51.449811045253576], [-0.2622688329535908, 51.454452387181156], [-0.26336702431021863, 51.45909371885227], [-0.2644654390395716, 51.463735040263124], [-0.26556407722373376, 51.468376351409916], [-0.26666293894482795, 51.47301765228886], [-0.2677620242850157, 51.47765894289616], [-0.26886133332649736, 51.48230022322803], [-0.26996086615151216, 51.48694149328064], [-0.27106062284233795, 51.49158275305022], [-0.2721606034812915, 51.49622400253294], [-0.27326080815072884, 51.500865241725], [-0.2743612369330442, 51.505506470622606], [-0.2754618899106713, 51.51014768922193], [-0.2765627671660826, 51.51478889751918], [-0.27766386878178956, 51.519430095510536], [-0.27876519484034235, 51.524071283192164], [-0.27986674542433077, 51.52871246056028], [-0.2809685206163831, 51.53335362761104], [-0.28207052049916703, 51.53799478434064], [-0.2831727451553889, 51.54263593074524], [-0.2842751946677947, 51.547277066821046], [-0.28537786911916924, 51.551918192564194], [-0.2864807685923364, 51.556559307970886], [-0.28758389317015953, 51.561200413037284], [-0.28868724293554093, 51.56584150775955], [-0.28979081797142214, 51.57048259213386], [-0.2908946183607842, 51.575123666156365], [-0.29199864418664706, 51.579764729823246], [-0.2931028955320703, 51.58440578313067], [-0.29420737248015244, 51.589046826074764], [-0.29531207511403174, 51.59368785865171]]}}, {"type": "Feature", "properties": {"segment": "arrival_full", "dest": "LGW"}, "geometry": {"type": "LineString", "coordinates": [[-0.29531207511403174, 51.59368785865171], [-0.2901273564202949, 51.57523104047997], [-0.28494684675070636, 51.55677399406172], [-0.2797705399599702, 51.53831671973306], [-0.2745984299142794, 51.51985921782938], [-0.2694305104912892, 51.5014014886855], [-0.2642667755800899, 51.48294353263557], [-0.2591072190811804, 51.46448535001313], [-0.25395183490644163, 51.44602694115106], [-0.2488006169791099, 51.427568306381644], [-0.24365355923375023, 51.40910944603653], [-0.23851065561623042, 51.39065036044674], [-0.233371900083694, 51.372191049942685], [-0.22823728660453457, 51.35373151485411], [-0.2231068091583693, 51.33527175551018], [-0.2179804617360131, 51.31681177223945], [-0.21285823833945203, 51.29835156536982], [-0.20774013298181765, 51.27989113522858], [-0.20262613968736137, 51.26143048214245], [-0.19751625249142807, 51.242969606437484], [-0.19241046544043064, 51.22450850843915], [-0.18730877259182435, 51.20604718847229], [-0.182211168014081, 51.18758564686116], [-0.17711764578666336, 51.169123883929394], [-0.17202820000000002, 51.1506619], [-0.16082554437215804, 51.152205533064766], [-0.1720282, 51.1506619], [-0.1720282, 51.1506619], [-0.1720282, 51.1506619], [-0.1720282, 51.1506619], [-0.1720282, 51.1506619], [-0.1720282, 51.1506619], [-0.1720282, 51.1506619], [-0.1720282, 51.1506619], [-0.1811531, 51.149381950000006], [-0.189618, 51.147722]]}}, {"type": "Feature", "properties": {"segment": "arrival_approach"}, "geometry": {"type": "LineString", "coordinates": [[-0.29531207511403174, 51.59368785865171], [-0.2901273564202949, 51.57523104047997], [-0.28494684675070636, 51.55677399406172], [-0.2797705399599702, 51.53831671973306], [-0.2745984299142794, 51.51985921782938], [-0.2694305104912892, 51.5014014886855], [-0.2642667755800899, 51.48294353263557], [-0.2591072190811804, 51.46448535001313], [-0.25395183490644163, 51.44602694115106], [-0.2488006169791099, 51.427568306381644], [-0.24365355923375023, 51.40910944603653], [-0.23851065561623042, 51.39065036044674], [-0.233371900083694, 51.372191049942685], [-0.22823728660453457, 51.35373151485411], [-0.2231068091583693, 51.33527175551018], [-0.2179804617360131, 51.31681177223945], [-0.21285823833945203, 51.29835156536982], [-0.20774013298181765, 51.27989113522858], [-0.20262613968736137, 51.26143048214245], [-0.19751625249142807, 51.242969606437484], [-0.19241046544043064, 51.22450850843915], [-0.18730877259182435, 51.20604718847229], [-0.182211168014081, 51.18758564686116], [-0.17711764578666336, 51.169123883929394]]}}, {"type": "Feature", "properties": {"segment": "arrival_runway"}, "geometry": {"type": "LineString", "coordinates": [[-0.17711764578666336, 51.169123883929394], [-0.17202820000000002, 51.1506619], [-0.16082554437215804, 51.152205533064766], [-0.1720282, 51.1506619]]}}, {"type": "Feature", "properties": {"segment": "arrival_turn"}, "geometry": {"type": "LineString", "coordinates": [[-0.1720282, 51.1506619], [-0.1720282, 51.1506619], [-0.1720282, 51.1506619], [-0.1720282, 51.1506619], [-0.1720282, 51.1506619], [-0.1720282, 51.1506619]]}}, {"type": "Feature", "properties": {"segment": "arrival_taxi"}, "geometry": {"type": "LineString", "coordinates": [[-0.1720282, 51.1506619], [-0.1811531, 51.149381950000006], [-0.189618, 51.147722]]}}, {"type": "Feature", "properties": {"dep_meta": {"synthetic": true}, "arr_meta": {"takeoff_end": {"lat": 51.1506619, "lon": -0.1720282}, "takeoff_heading": 257.6062041223951, "gc_bearing": 170.0692481418091, "rollout_km": 2.0, "transition_len_km": 40.0}}, "geometry": null}]}